USA 167                 
1 27691U 03008A   26200.16841988 -.00000006  00000+0  00000+0 0  9996
2 27691  11.0234  43.1181 0003511 314.6613 238.0269  1.00270489  7097
USA 169 (MILSTAR-2 4)   
1 27711U 03012A   26200.36594269 -.00000206  00000+0  00000+0 0  9995
2 27711  12.3974  29.5762 0099453  10.4236 181.0563  1.00273127 33275
ASIASAT 4               
1 27718U 03014A   26200.42546288 -.00000229  00000+0  00000+0 0  9994
2 27718   4.7833  75.3375 0002808  43.5507 119.0425  1.00271664 45620
HELLAS-SAT 2            
1 27811U 03020A   26200.40447937 -.00000093  00000+0  00000+0 0  9993
2 27811   7.4328  67.4954 0003900  83.5419 281.7330  1.00272031 43177
THURAYA-2               
1 27825U 03026A   26200.20129377  .00000116  00000+0  00000+0 0  9992
2 27825   8.8869  31.8232 0002342  27.7262 353.9188  1.00272924 84670
OPTUS C1                
1 27831U 03028B   26200.50859400 -.00000161  00000+0  00000+0 0  9992
2 27831   6.9686  69.0147 0005363  44.3591 162.6679  1.00269222 53388
USA 170                 
1 27875U 03040A   26200.19748043  .00000116  00000+0  00000+0 0  9998
2 27875  10.5674  47.6391 0001904  75.9325 268.8027  1.00276356 33312
GALAXY 13 (HORIZONS-1)  
1 27954U 03044A   26200.50739366  .00000127  00000+0  00000+0 0  9995
2 27954   1.4997  83.4436 0002096  37.8290 208.6763  1.00273222 46891
YAMAL 202               
1 28089U 03053A   26200.63335282 -.00000088  00000+0  00000+0 0  9995
2 28089   6.4217  70.5408 0003151  46.5454 211.8680  1.00271625 83024
UFO 11 (USA 174)        
1 28117U 03057A   26200.56400111 -.00000112  00000+0  00000+0 0  9995
2 28117   8.9545  33.6460 0002784 101.8308  80.4673  1.00270725 82772
USA 176 (DSP 22)        
1 28158U 04004A   26200.39667933 -.00000306  00000+0  00000+0 0  9996
2 28158  12.1055  25.8289 0001094 305.8985  58.7131  1.00264768 33269
ABS-4 (MOBISAT-1)       
1 28184U 04007A   26200.20467378  .00000030  00000+0  00000+0 0  9992
2 28184   6.1193  71.6127 0004556  50.1268 309.9230  1.00274381 52651
INTELSAT 10-02          
1 28358U 04022A   26200.54872086 -.00000016  00000+0  00000+0 0  9990
2 28358   0.0542 254.1335 0000119 297.3954 302.3375  1.00270240 80885
ANIK F2                 
1 28378U 04027A   26200.52705409 -.00000056  00000+0  00000+0 0  9993
2 28378   3.3694  79.0152 0003687  34.1105 262.7954  1.00271938 41581
AMC-15                  
1 28446U 04041A   26200.52826743 -.00000093  00000+0  00000+0 0  9991
2 28446   0.0394 287.9331 0002332 187.6476 266.8543  1.00271693 79621
NSS-10                  
1 28526U 05003A   26200.47037466 -.00000259  00000+0  00000+0 0  9993
2 28526   6.5290  70.0587 0002818  44.0109 315.0673  1.00272098 53474
INMARSAT 4-F1           
1 28628U 05009A   26200.35624557  .00000025  00000+0  00000+0 0  9992
2 28628   5.2118  42.7953 0002685  73.6174 127.0737  1.00272223 77992
DIRECTV 8               
1 28659U 05019A   26200.52549407 -.00000003  00000+0  00000+0 0  9993
2 28659   0.0198  61.8760 0003074  61.7076 243.8464  1.00272403 77395
GALAXY 28 (G-28)        
1 28702U 05022A   26200.47236801 -.00000206  00000+0  00000+0 0  9996
2 28702   3.3786  78.5317 0002461  35.0407 326.6407  1.00271043 52307
THAICOM 4               
1 28786U 05028A   26200.57266780 -.00000367  00000+0  00000+0 0  9992
2 28786   0.3271  85.5253 0001620   7.3389 170.1518  1.00272445 52570
ANIK F1R                
1 28868U 05036A   26200.39280763 -.00000082  00000+0  00000+0 0  9993
2 28868   4.3932  76.1788 0003939  21.3290 233.7721  1.00272042 46770
SYRACUSE 3A             
1 28885U 05041B   26200.20190044  .00000122  00000+0  00000+0 0  9994
2 28885   4.7200  75.4436 0002703  33.3320 307.5357  1.00270170 76068
INMARSAT 4-F2           
1 28899U 05044A   26200.50606508 -.00000267  00000+0  00000+0 0  9993
2 28899   5.1373  43.6791 0002880  61.6466 157.6414  1.00271241 75844
METEOSAT-9 (MSG-2)      
1 28912U 05049B   26200.20164044  .00000114  00000+0  00000+0 0  9995
2 28912   9.4322  53.8482 0002395 357.9817   3.4307  1.00274349  7322
EUTELSAT 174A           
1 28924U 05052A   26200.51223402  .00000002  00000+0  00000+0 0  9996
2 28924   4.2987  76.1272 0006002  42.3628 177.1597  1.00272627 52657
ECHOSTAR 10             
1 28935U 06003A   26200.52722742 -.00000060  00000+0  00000+0 0  9992
2 28935   0.0448 287.6488 0001617 150.3258 298.9535  1.00271281 74786
SPAINSAT                
1 28945U 06007A   26200.25885717 -.00000222  00000+0  00000+0 0  9999
2 28945   0.6444  86.0157 0004843  27.7175 246.2998  1.00273007 74532
JCSAT-5A                
1 29045U 06010A   26200.57518115 -.00000332  00000+0  00000+0 0  9997
2 29045   1.1912  83.8531 0001851  25.2656 167.3532  1.00272294 74099
ASTRA 1KR               
1 29055U 06012A   26200.33898906  .00000114  00000+0  00000+0 0  9990
2 29055   0.5551  83.1894 0003456  27.0579 327.9056  1.00272704 46016
GALAXY 16 (G-16)        
1 29236U 06023A   26200.52948076 -.00000131  00000+0  00000+0 0  9998
2 29236   0.0248 142.1675 0002669 336.1844 270.5634  1.00271619 73291
EUTELSAT 33F            
1 29270U 06032A   26200.48432806  .00000150  00000+0  00000+0 0  9990
2 29270   1.7433  81.8841 0003583  32.3297  30.4965  1.00274441 47635
JCSAT-3A                
1 29272U 06033A   26200.57440115 -.00000349  00000+0  00000+0 0  9996
2 29272   0.0381 260.1745 0002262 222.1846 149.7909  1.00271567 48064
