OBJECT_NAME,OBJECT_ID,EPOCH,MEAN_MOTION,ECCENTRICITY,INCLINATION,RA_OF_ASC_NODE,ARG_OF_PERICENTER,MEAN_ANOMALY,EPHEMERIS_TYPE,CLASSIFICATION_TYPE,NORAD_CAT_ID,ELEMENT_SET_NO,REV_AT_EPOCH,BSTAR,MEAN_MOTION_DOT,MEAN_MOTION_DDOT
USA 167,2003-008A,2026-07-19T04:02:31.477632,1.00270489,.00035117,11.0234,43.1181,314.6613,238.0269,0,U,27691,999,709,0,-.6E-7,0
USA 169 (MILSTAR-2 4),2003-012A,2026-07-19T08:46:57.448416,1.00273127,.0099453,12.3974,29.5762,10.4236,181.0563,0,U,27711,999,3327,0,-.206E-5,0
ASIASAT 4,2003-014A,2026-07-19T10:12:39.992832,1.00271664,.00028089,4.7833,75.3375,43.5507,119.0425,0,U,27718,999,4562,0,-.229E-5,0
HELLAS-SAT 2,2003-020A,2026-07-19T09:42:27.017568,1.00272031,.00039002,7.4328,67.4954,83.5419,281.7330,0,U,27811,999,4317,0,-.93E-6,0
THURAYA-2,2003-026A,2026-07-19T04:49:51.781728,1.00272924,.00023426,8.8869,31.8232,27.7262,353.9188,0,U,27825,999,8467,0,.116E-5,0
OPTUS C1,2003-028B,2026-07-19T12:12:22.521600,1.00269222,.00053631,6.9686,69.0147,44.3591,162.6679,0,U,27831,999,5338,0,-.161E-5,0
USA 170,2003-040A,2026-07-19T04:44:22.309152,1.00276356,.0001904,10.5674,47.6391,75.9325,268.8027,0,U,27875,999,3331,0,.116E-5,0
GALAXY 13 (HORIZONS-1),2003-044A,2026-07-19T12:10:38.812224,1.00273222,.00020967,1.4997,83.4436,37.8290,208.6763,0,U,27954,999,4689,0,.127E-5,0
YAMAL 202,2003-053A,2026-07-19T15:12:01.683648,1.00271625,.00031516,6.4217,70.5408,46.5454,211.8680,0,U,28089,999,8302,0,-.88E-6,0
UFO 11 (USA 174),2003-057A,2026-07-19T13:32:09.695904,1.00270725,.00027844,8.9545,33.6460,101.8308,80.4673,0,U,28117,999,8277,0,-.112E-5,0
USA 176 (DSP 22),2004-004A,2026-07-19T09:31:13.094112,1.00264768,.00010943,12.1055,25.8289,305.8985,58.7131,0,U,28158,999,3326,0,-.306E-5,0
ABS-4 (MOBISAT-1),2004-007A,2026-07-19T04:54:43.814592,1.00274381,.00045568,6.1193,71.6127,50.1268,309.9230,0,U,28184,999,5265,0,.3E-6,0
INTELSAT 10-02,2004-022A,2026-07-19T13:10:09.482304,1.00270240,.00001195,0.0542,254.1335,297.3954,302.3375,0,U,28358,999,8088,0,-.16E-6,0
ANIK F2,2004-027A,2026-07-19T12:38:57.473376,1.00271938,.00036875,3.3694,79.0152,34.1105,262.7954,0,U,28378,999,4158,0,-.56E-6,0
AMC-15,2004-041A,2026-07-19T12:40:42.305952,1.00271693,.0002332,0.0394,287.9331,187.6476,266.8543,0,U,28446,999,7962,0,-.93E-6,0
NSS-10,2005-003A,2026-07-19T11:17:20.370624,1.00272098,.00028187,6.5290,70.0587,44.0109,315.0673,0,U,28526,999,5347,0,-.259E-5,0
INMARSAT 4-F1,2005-009A,2026-07-19T08:32:59.617248,1.00272223,.00026855,5.2118,42.7953,73.6174,127.0737,0,U,28628,999,7799,0,.25E-6,0
DIRECTV 8,2005-019A,2026-07-19T12:36:42.687648,1.00272403,.0003074,0.0198,61.8760,61.7076,243.8464,0,U,28659,999,7739,0,-.3E-7,0
GALAXY 28 (G-28),2005-022A,2026-07-19T11:20:12.596064,1.00271043,.00024614,3.3786,78.5317,35.0407,326.6407,0,U,28702,999,5230,0,-.206E-5,0
THAICOM 4,2005-028A,2026-07-19T13:44:38.497920,1.00272445,.00016203,0.3271,85.5253,7.3389,170.1518,0,U,28786,999,5257,0,-.367E-5,0
ANIK F1R,2005-036A,2026-07-19T09:25:38.579232,1.00272042,.00039392,4.3932,76.1788,21.3290,233.7721,0,U,28868,999,4677,0,-.82E-6,0
SYRACUSE 3A,2005-041B,2026-07-19T04:50:44.198016,1.00270170,.00027037,4.7200,75.4436,33.3320,307.5357,0,U,28885,999,7606,0,.122E-5,0
INMARSAT 4-F2,2005-044A,2026-07-19T12:08:44.022912,1.00271241,.00028801,5.1373,43.6791,61.6466,157.6414,0,U,28899,999,7584,0,-.267E-5,0
METEOSAT-9 (MSG-2),2005-049B,2026-07-19T04:50:21.734016,1.00274349,.0002395,9.4322,53.8482,357.9817,3.4307,0,U,28912,999,732,0,.114E-5,0
EUTELSAT 174A,2005-052A,2026-07-19T12:17:37.019328,1.00272627,.00060027,4.2987,76.1272,42.3628,177.1597,0,U,28924,999,5265,0,.2E-7,0
ECHOSTAR 10,2006-003A,2026-07-19T12:39:12.449088,1.00271281,.00016179,0.0448,287.6488,150.3258,298.9535,0,U,28935,999,7478,0,-.6E-6,0
SPAINSAT,2006-007A,2026-07-19T06:12:45.259488,1.00273007,.00048435,0.6444,86.0157,27.7175,246.2998,0,U,28945,999,7453,0,-.222E-5,0
JCSAT-5A,2006-010A,2026-07-19T13:48:15.651360,1.00272294,.00018513,1.1912,83.8531,25.2656,167.3532,0,U,29045,999,7409,0,-.332E-5,0
ASTRA 1KR,2006-012A,2026-07-19T08:08:08.654784,1.00272704,.00034563,0.5551,83.1894,27.0579,327.9056,0,U,29055,999,4601,0,.114E-5,0
GALAXY 16 (G-16),2006-023A,2026-07-19T12:42:27.137664,1.00271619,.00026697,0.0248,142.1675,336.1844,270.5634,0,U,29236,999,7329,0,-.131E-5,0
EUTELSAT 33F,2006-032A,2026-07-19T11:37:25.944384,1.00274441,.0003583,1.7433,81.8841,32.3297,30.4965,0,U,29270,999,4763,0,.15E-5,0
JCSAT-3A,2006-033A,2026-07-19T13:47:08.259360,1.00271567,.00022621,0.0381,260.1745,222.1846,149.7909,0,U,29272,999,4806,0,-.349E-5,0
